OBJECT_NAME,OBJECT_ID,EPOCH,MEAN_MOTION,ECCENTRICITY,INCLINATION,RA_OF_ASC_NODE,ARG_OF_PERICENTER,MEAN_ANOMALY,EPHEMERIS_TYPE,CLASSIFICATION_TYPE,NORAD_CAT_ID,ELEMENT_SET_NO,REV_AT_EPOCH,BSTAR,MEAN_MOTION_DOT,MEAN_MOTION_DDOT
STARLINK-4561,2022-101AN,2026-06-19T14:00:01.999872,15.14684703,.00005786,53.1598,316.7365,113.6232,318.0154,0,U,53563,999,570,.30003876E-3,.5317E-4,0
STARLINK-4577,2022-101AP,2026-06-19T14:00:01.999872,15.13187423,.00013097,53.1606,316.6107,60.3086,74.9850,0,U,53564,999,580,.38219894E-3,.6567E-4,0
STARLINK-4575,2022-101AQ,2026-06-19T14:00:01.999872,15.13189287,.00005678,53.1596,316.7049,132.2520,313.6420,0,U,53565,999,585,.31785961E-3,.5411E-4,0
STARLINK-4576,2022-101AR,2026-06-19T14:00:01.999872,15.15543170,.00017838,53.1600,316.4323,63.5571,161.5469,0,U,53566,999,580,.4730524E-3,.8779E-4,0
STARLINK-4585,2022-101AS,2026-06-19T13:35:56.953824,15.08829183,.00010856,53.1605,316.7690,87.3518,272.7597,0,U,53567,999,21182,.11235136E-4,-.109E-5,0
STARLINK-4583,2022-101AT,2026-06-19T14:00:01.999872,15.12054730,.00023278,53.1596,316.4325,63.1233,162.2115,0,U,53568,999,584,.52319642E-3,.8814E-4,0
STARLINK-4582,2022-101AU,2026-06-19T14:00:01.999872,15.13464690,.00015181,53.1607,316.5563,37.3914,124.6170,0,U,53569,999,580,.40812236E-3,.709E-4,0
STARLINK-4550,2022-101AV,2026-06-19T14:00:01.999872,15.14130992,.00012002,53.1600,316.4268,133.3953,95.0013,0,U,53570,999,575,.44171544E-3,.7848E-4,0
STARLINK-4584,2022-101AW,2026-06-19T14:00:01.999872,15.14395071,.00009811,53.1599,316.4319,105.0691,120.9926,0,U,53571,999,580,.80888096E-3,.14749E-3,0
STARLINK-4555,2022-101AX,2026-06-19T14:00:01.999872,15.13080043,.00017226,53.1591,316.2171,124.7732,211.1469,0,U,53572,999,579,.3315449E-3,.5638E-4,0
STARLINK-4559,2022-101AZ,2026-06-19T14:00:01.999872,15.11291418,.0002874,53.1590,316.2899,121.2123,177.8988,0,U,53574,999,579,.78508651E-3,.13098E-3,0
STARLINK-4551,2022-101BA,2026-06-19T14:00:01.999872,15.13937891,.00013788,53.1592,316.3131,103.5882,182.8165,0,U,53575,999,579,.58570883E-3,.10451E-3,0
STARLINK-4581,2022-101BB,2026-06-18T17:50:14.862048,15.08834848,.00011185,53.1602,320.1660,80.5552,279.5565,0,U,53576,999,21252,.4656245E-4,.453E-5,0
STARLINK-4553,2022-101BC,2026-06-19T14:00:01.999872,15.13021407,.00013792,53.1592,316.2964,111.6387,182.6226,0,U,53577,999,584,.59241728E-3,.10301E-3,0
STARLINK-4556,2022-101BD,2026-06-19T14:00:01.999872,15.14129442,.00011533,53.1588,316.1393,144.2537,231.5178,0,U,53578,999,579,.10069004E-3,.1553E-4,0
STARLINK-4580,2022-101BE,2026-06-19T14:00:01.999872,15.11503590,.00010519,53.1598,316.1651,67.7075,293.3178,0,U,53579,999,579,.54676918E-3,.9082E-4,0
CHUANGXIN 16A (CX-16A),2022-102A,2026-06-18T20:20:33.238752,15.05934455,.0005015,28.9958,315.1464,30.6070,329.4821,0,U,53586,999,20977,.96377E-4,.1595E-4,0
BEIJING-3B,2022-103A,2026-06-19T15:19:37.320960,14.87196717,.00258521,97.8012,248.0096,48.6767,311.6669,0,U,53587,999,20745,.1011209E-3,.86E-5,0
STARLINK-4691,2022-104A,2026-06-19T06:01:34.158720,15.08834939,.00012097,53.1596,148.3331,100.3065,259.8063,0,U,53588,999,21142,-.68317036E-4,-.1375E-4,0
STARLINK-4673,2022-104B,2026-06-19T14:00:01.999872,15.12981581,.00024582,53.1598,146.6150,59.2576,61.9003,0,U,53589,999,580,.30047083E-4,.236E-5,0
STARLINK-4689,2022-104C,2026-06-19T14:00:01.999872,15.69494639,.00014787,53.2202,132.1713,92.5271,280.9203,0,U,53590,999,593,.35887807E-2,.454792E-2,0
STARLINK-4674,2022-104D,2026-06-19T09:01:43.802688,15.08829986,.00013012,53.1596,147.6937,83.1337,276.9803,0,U,53591,999,21131,.7981541E-5,-.161E-5,0
STARLINK-4672,2022-104E,2026-06-19T14:00:01.999872,15.14721387,.0002062,53.1605,146.6615,47.6837,50.7828,0,U,53592,999,570,.99139633E-4,.1553E-4,0
STARLINK-4681,2022-104G,2026-06-19T12:43:22.228896,16.06086562,.00012606,53.2130,114.6109,358.2764,1.8265,0,U,53594,999,21191,.89226293E-3,.669202E-2,.23337544E-3
STARLINK-4684,2022-104H,2026-06-19T05:29:43.706976,15.08830812,.00015846,53.1597,148.1971,73.6308,286.4857,0,U,53595,999,21127,-.26068064E-4,-.703E-5,0
STARLINK-4676,2022-104L,2026-06-19T12:48:32.637312,15.09429166,.00013848,53.1612,146.5479,119.9706,240.1423,0,U,53598,999,21099,.44175636E-2,.71891E-3,0
STARLINK-4677,2022-104N,2026-06-19T04:48:48.353760,15.08838117,.00012723,53.1606,148.7160,89.2296,270.8841,0,U,53600,999,21093,.46583418E-4,.453E-5,0
STARLINK-4675,2022-104P,2026-06-19T09:53:15.629280,15.09705709,.00024794,53.1599,147.2067,161.3837,198.7246,0,U,53601,999,21097,.64621434E-2,.106626E-2,0
STARLINK-4648,2022-104Q,2026-06-19T08:27:54.176832,15.08829760,.00012506,53.1600,142.5687,84.8648,275.2486,0,U,53602,999,21103,.9199632E-5,-.142E-5,0
STARLINK-4692,2022-104R,2026-06-19T05:48:59.470272,15.08823953,.00014447,53.1610,143.2996,84.7056,275.4101,0,U,53603,999,21101,.17078881E-3,.243E-4,0
STARLINK-4690,2022-104S,2026-06-19T08:17:17.317248,15.08832879,.00013508,53.1592,142.5199,85.1928,274.9217,0,U,53604,999,21103,-.10282948E-4,-.452E-5,0
STARLINK-4693,2022-104T,2026-06-19T13:04:16.346496,16.03968969,.00006816,53.2128,114.7132,33.0802,327.0273,0,U,53605,999,21144,.95550563E-3,.629562E-2,.1992953E-3
STARLINK-4590,2022-104U,2026-06-19T04:06:17.025696,15.08835445,.00013327,53.1614,138.5601,89.1013,271.0131,0,U,53606,999,21095,.4125385E-4,.369E-5,0
STARLINK-4591,2022-104V,2026-06-19T14:00:01.999872,15.22242618,.00002193,53.1610,141.2501,117.3791,198.1234,0,U,53607,999,580,.16939251E-2,.39333E-3,0
STARLINK-4647,2022-104W,2026-06-19T04:16:53.639040,15.08838027,.0001238,53.1608,138.6056,84.1892,275.9240,0,U,53608,999,21095,.58580198E-4,.644E-5,0
STARLINK-4660,2022-104X,2026-06-19T14:00:01.999872,15.18661069,.0000735,53.1589,141.0889,43.6647,355.5450,0,U,53609,999,579,.22189828E-3,.434E-4,0
STARLINK-4610,2022-104Y,2026-06-19T10:29:12.368544,15.08834973,.00014257,53.1602,137.3742,80.6512,279.4641,0,U,53610,999,21099,.29577041E-4,.183E-5,0
STARLINK-4658,2022-104AA,2026-06-19T05:36:21.827808,15.08832403,.00014065,53.1601,138.2408,82.0865,278.0286,0,U,53612,999,21096,-.96030415E-4,-.1816E-4,0
STARLINK-4655,2022-104AB,2026-06-19T04:11:35.303424,15.08836815,.00013921,53.1610,138.5827,88.1928,271.9223,0,U,53613,999,21095,.31982096E-4,.221E-5,0
STARLINK-4605,2022-104AE,2026-06-19T03:56:58.093728,15.08833146,.00013997,53.1602,128.3490,89.6530,270.4621,0,U,53616,999,21120,-.5455156E-5,-.375E-5,0
STARLINK-4609,2022-104AH,2026-06-19T05:25:45.153984,15.08832288,.00013289,53.1604,138.1929,85.5061,274.6082,0,U,53619,999,21096,.35657793E-4,.279E-5,0
STARLINK-4615,2022-104AJ,2026-06-19T05:04:31.677600,15.08830382,.00012663,53.1605,138.1023,76.9192,283.1941,0,U,53620,999,21107,.22728264E-4,.74E-6,0
STARLINK-4608,2022-104AK,2026-06-19T06:55:49.975104,15.08827621,.00012576,53.1614,137.8745,83.9654,276.1481,0,U,53621,999,21097,-.11944505E-3,-.2188E-4,0
STARLINK-4568,2022-104AL,2026-06-19T04:32:41.148960,15.08836877,.00013576,53.1601,137.9682,86.2028,273.9118,0,U,53622,999,21107,.16589528E-4,-.24E-6,0
STARLINK-4573,2022-104AM,2026-06-19T14:00:01.999872,15.23456139,.00013272,53.1611,136.0253,55.5775,13.3375,0,U,53623,999,569,.19809628E-2,.478E-3,0
STARLINK-4596,2022-104AN,2026-06-19T14:00:01.999872,15.20704230,.00015218,53.1607,136.0574,42.8294,7.9051,0,U,53624,999,579,.19577923E-2,.43518E-3,0
STARLINK-4554,2022-104AQ,2026-06-19T07:48:45.989856,15.08834252,.00011374,53.1597,137.3912,78.1157,281.9962,0,U,53626,999,21110,.517357E-5,-.206E-5,0
STARLINK-4595,2022-104AR,2026-06-19T04:48:36.789120,15.08830940,.00014816,53.1598,138.0320,91.9252,268.1909,0,U,53627,999,21108,-.2397452E-5,-.326E-5,0
STARLINK-4600,2022-104AS,2026-06-19T04:27:22.986144,15.08835796,.00013493,53.1604,137.9433,88.6817,271.4329,0,U,53628,999,21108,.1017339E-5,-.272E-5,0
STARLINK-4602,2022-104AT,2026-06-19T14:15:37.213344,15.08837381,.00013576,53.1607,136.2231,89.7482,270.3665,0,U,53629,999,21114,-.18602244E-3,-.3247E-4,0
STARLINK-4598,2022-104AU,2026-06-19T03:58:22.875456,15.08835016,.00014591,53.1601,128.5449,91.5762,268.5396,0,U,53630,999,21138,-.12486008E-4,-.487E-5,0
STARLINK-4599,2022-104AV,2026-06-19T04:22:06.637728,15.08822282,.00012917,53.1603,137.9206,90.3904,269.7236,0,U,53631,999,21108,.87047573E-4,.1097E-4,0
STARLINK-4606,2022-104AW,2026-06-19T03:46:22.952640,15.08838482,.00014306,53.1603,128.4938,86.7783,273.3372,0,U,53632,999,21154,.45449117E-4,.435E-5,0
STARLINK-4593,2022-104AX,2026-06-19T03:51:42.767424,15.08847866,.00018688,53.1595,128.5168,71.5326,288.5869,0,U,53633,999,21121,.20833593E-3,.303E-4,0
STARLINK-4592,2022-104AY,2026-06-19T03:35:46.469760,15.08836233,.00013684,53.1610,128.4482,89.4840,270.6309,0,U,53634,999,21154,.56304308E-4,.608E-5,0
STARLINK-4586,2022-104BA,2026-06-19T06:35:57.559200,15.08834253,.00016728,53.1620,127.8047,92.1531,267.9652,0,U,53636,999,21156,.531718E-5,-.204E-5,0
STARLINK-4396,2022-104BB,2026-06-19T13:46:36.708672,15.08836131,.00011524,53.1606,126.8177,82.3723,277.7399,0,U,53637,999,21160,.81887315E-4,.1015E-4,0
STARLINK-4594,2022-104BC,2026-06-19T14:06:20.293632,15.08829705,.00013312,53.1611,126.2061,87.4904,272.6239,0,U,53638,999,21161,.13807158E-4,-.68E-6,0
STARLINK-4422,2022-104BD,2026-06-19T14:00:01.999872,15.47889512,.00010483,53.2273,118.1082,61.4263,183.1774,0,U,53639,999,576,.28972629E-2,.15598E-2,0
STARLINK-4597,2022-104BE,2026-06-19T06:25:19.634304,15.08836752,.00014511,53.1616,127.7615,83.6845,276.4312,0,U,53640,999,21156,.18104835E-4,0,0
STARLINK-4588,2022-104BF,2026-06-19T06:41:14.312832,15.08837184,.0001357,53.1608,127.8259,90.8311,269.2835,0,U,53641,999,21156,.23285533E-4,.83E-6,0
STARLINK-4622,2022-105A,2026-06-19T09:50:49.960608,15.05653979,.00019478,97.3468,49.3597,95.1429,265.0021,0,U,53648,999,20854,.56688241E-4,.761E-5,0
STARLINK-4386,2022-105B,2026-06-19T14:00:01.999872,15.47405424,.00018286,97.6008,54.5069,77.8306,316.7457,0,U,53649,999,586,.361679E-2,.189351E-2,0
STARLINK-4380,2022-105C,2026-06-19T05:07:43.317984,15.05653878,.0001895,97.3469,49.1606,74.7059,285.4377,0,U,53650,999,20850,.38631443E-4,.5E-5,0
